[{"OBJECT_NAME":"LAPAN-A3","OBJECT_ID":"2016-040E","EPOCH":"2026-03-09T23:01:57.724896","MEAN_MOTION":15.3238951,"ECCENTRICITY":0.00109839,"INCLINATION":97.1488,"RA_OF_ASC_NODE":68.4254,"ARG_OF_PERICENTER":22.062,"MEAN_ANOMALY":338.1093,"EPHEMERIS_TYPE":0,"CLASSIFICATION_TYPE":"U","NORAD_CAT_ID":41603,"ELEMENT_SET_NO":999,"REV_AT_EPOCH":53961,"BSTAR":0.00017567445,"MEAN_MOTION_DOT":5.428e-5,"MEAN_MOTION_DDOT":0},{"OBJECT_NAME":"STARLINK-33573","OBJECT_ID":"2025-015W","EPOCH":"2026-03-09T22:38:15.216288","MEAN_MOTION":15.30218501,"ECCENTRICITY":0.00027756,"INCLINATION":53.1602,"RA_OF_ASC_NODE":321.0146,"ARG_OF_PERICENTER":168.4626,"MEAN_ANOMALY":191.6439,"EPHEMERIS_TYPE":0,"CLASSIFICATION_TYPE":"U","NORAD_CAT_ID":62778,"ELEMENT_SET_NO":999,"REV_AT_EPOCH":6452,"BSTAR":0.00095713124,"MEAN_MOTION_DOT":0.00028113,"MEAN_MOTION_DDOT":0}]
